{"type": "FeatureCollection", "features": [ {"type": "Feature", "properties": {"norad_id": 31985, "name": "FENGYUN 1C DEB", "group": "fengyun-1c-debris", "lat": -22.456967641615663, "lon": 69.87516932423426, "alt_km": 724.1562946581971, "timestamp": "2025-12-18T10:51:26.092861+00:00", "meta": {"OBJECT_NAME": "FENGYUN 1C DEB", "OBJECT_ID": "1999-025CPN", "EPOCH": "2025-12-13T23:34:50.116800", "MEAN_MOTION": 14.22977716, "ECCENTRICITY": 0.01504255, "INCLINATION": 98.2196, "RA_OF_ASC_NODE": 249.1254, "ARG_OF_PERICENTER": 243.0612, "MEAN_ANOMALY": 115.5134, "EPHEMERIS_TYPE": 0, "CLASSIFICATION_TYPE": "U", "NORAD_CAT_ID": 31985, "ELEMENT_SET_NO": 999, "REV_AT_EPOCH": 95628, "BSTAR": 0.00043991826, "MEAN_MOTION_DOT": 1.071e-05, "MEAN_MOTION_DDOT": 0}, "tle": {"line1": "1 31985U 99025CPN 25347.98252450  .00001071  00000+0  43992-3 0  9995", "line2": "2 31985  98.2196 249.1254 0150425 243.0612 115.5134 14.22977716956281"}}, "geometry": {"type": "Point", "coordinates": [69.87516932423426, -22.456967641615663]}}, {"type": "Feature", "properties": {"norad_id": 31987, "name": "FENGYUN 1C DEB", "group": "fengyun-1c-debris", "lat": 74.36402194335676, "lon": -68.24361794770417, "alt_km": 718.3595970891838, "timestamp": "2025-12-18T10:51:26.092872+00:00", "meta": {"OBJECT_NAME": "FENGYUN 1C DEB", "OBJECT_ID": "1999-025CPQ", "EPOCH": "2025-12-17T21:20:39.433056", "MEAN_MOTION": 14.44944094, "ECCENTRICITY": 0.00517476, "INCLINATION": 99.0388, "RA_OF_ASC_NODE": 325.8207, "ARG_OF_PERICENTER": 142.1869, "MEAN_ANOMALY": 248.406, "EPHEMERIS_TYPE": 0, "CLASSIFICATION_TYPE": "U", "NORAD_CAT_ID": 31987, "ELEMENT_SET_NO": 999, "REV_AT_EPOCH": 96444, "BSTAR": 0.00073712534, "MEAN_MOTION_DOT": 2.562e-05, "MEAN_MOTION_DDOT": 0}, "tle": {"line1": "1 31987U 99025CPQ 25351.88934529  .00002562  00000+0  73713-3 0  9995", "line2": "2 31987  99.0388 325.8207 0051747 142.1869 248.4060 14.44944094964443"}}, "geometry": {"type": "Point", "coordinates": [-68.24361794770417, 74.36402194335676]}}, {"type": "Feature", "properties": {"norad_id": 31989, "name": "FENGYUN 1C DEB", "group": "fengyun-1c-debris", "lat": 40.433433047536845, "lon": 45.63354412615041, "alt_km": 951.0035293345718, "timestamp": "2025-12-18T10:51:26.092885+00:00", "meta": {"OBJECT_NAME": "FENGYUN 1C DEB", "OBJECT_ID": "1999-025CPS", "EPOCH": "2025-12-15T16:11:35.170368", "MEAN_MOTION": 13.93591985, "ECCENTRICITY": 0.0115261, "INCLINATION": 99.2132, "RA_OF_ASC_NODE": 50.8156, "ARG_OF_PERICENTER": 291.0863, "MEAN_ANOMALY": 221.027, "EPHEMERIS_TYPE": 0, "CLASSIFICATION_TYPE": "U", "NORAD_CAT_ID": 31989, "ELEMENT_SET_NO": 999, "REV_AT_EPOCH": 93758, "BSTAR": 0.00049954957, "MEAN_MOTION_DOT": 6.47e-06, "MEAN_MOTION_DDOT": 0}, "tle": {"line1": "1 31989U 99025CPS 25349.67471262  .00000647  00000+0  49955-3 0  9994", "line2": "2 31989  99.2132  50.8156 0115261 291.0863 221.0270 13.93591985937587"}}, "geometry": {"type": "Point", "coordinates": [45.63354412615041, 40.433433047536845]}}, {"type": "Feature", "properties": {"norad_id": 31990, "name": "FENGYUN 1C DEB", "group": "fengyun-1c-debris", "lat": 70.94853587050527, "lon": -137.58975611358213, "alt_km": 947.8480733650867, "timestamp": "2025-12-18T10:51:26.092896+00:00", "meta": {"OBJECT_NAME": "FENGYUN 1C DEB", "OBJECT_ID": "1999-025CPT", "EPOCH": "2025-12-16T07:20:08.280960", "MEAN_MOTION": 13.57204188, "ECCENTRICITY": 0.02602939, "INCLINATION": 99.1604, "RA_OF_ASC_NODE": 12.5538, "ARG_OF_PERICENTER": 175.4339, "MEAN_ANOMALY": 250.6378, "EPHEMERIS_TYPE": 0, "CLASSIFICATION_TYPE": "U", "NORAD_CAT_ID": 31990, "ELEMENT_SET_NO": 999, "REV_AT_EPOCH": 62820, "BSTAR": 0.00028232559, "MEAN_MOTION_DOT": 2.11e-06, "MEAN_MOTION_DDOT": 0}, "tle": {"line1": "1 31990U 99025CPT 25350.30565140  .00000211  00000+0  28233-3 0  9990", "line2": "2 31990  99.1604  12.5538 0260293 175.4339 250.6378 13.57204188628209"}}, "geometry": {"type": "Point", "coordinates": [-137.58975611358213, 70.94853587050527]}}, {"type": "Feature", "properties": {"norad_id": 31991, "name": "FENGYUN 1C DEB", "group": "fengyun-1c-debris", "lat": -33.47369118619755, "lon": -5.178918692446385, "alt_km": 1217.5218752559913, "timestamp": "2025-12-18T10:51:26.092906+00:00", "meta": {"OBJECT_NAME": "FENGYUN 1C DEB", "OBJECT_ID": "1999-025CPU", "EPOCH": "2025-12-10T18:22:22.024416", "MEAN_MOTION": 13.6127752, "ECCENTRICITY": 0.02446272, "INCLINATION": 100.4864, "RA_OF_ASC_NODE": 173.6062, "ARG_OF_PERICENTER": 58.2006, "MEAN_ANOMALY": 304.2706, "EPHEMERIS_TYPE": 0, "CLASSIFICATION_TYPE": "U", "NORAD_CAT_ID": 31991, "ELEMENT_SET_NO": 999, "REV_AT_EPOCH": 62060, "BSTAR": 0.00020963887, "MEAN_MOTION_DOT": 1.45e-06, "MEAN_MOTION_DDOT": 0}, "tle": {"line1": "1 31991U 99025CPU 25344.76553269  .00000145  00000+0  20964-3 0  9992", "line2": "2 31991 100.4864 173.6062 0244627  58.2006 304.2706 13.61277520620609"}}, "geometry": {"type": "Point", "coordinates": [-5.178918692446385, -33.47369118619755]}}, {"type": "Feature", "properties": {"norad_id": 31992, "name": "FENGYUN 1C DEB", "group": "fengyun-1c-debris", "lat": 32.25402124322526, "lon": -54.18937249701894, "alt_km": 777.7845502005994, "timestamp": "2025-12-18T10:51:26.092916+00:00", "meta": {"OBJECT_NAME": "FENGYUN 1C DEB", "OBJECT_ID": "1999-025CPV", "EPOCH": "2025-12-12T04:04:23.293056", "MEAN_MOTION": 13.22988689, "ECCENTRICITY": 0.05424019, "INCLINATION": 99.1658, "RA_OF_ASC_NODE": 306.1111, "ARG_OF_PERICENTER": 30.97, "MEAN_ANOMALY": 332.2249, "EPHEMERIS_TYPE": 0, "CLASSIFICATION_TYPE": "U", "NORAD_CAT_ID": 31992, "ELEMENT_SET_NO": 999, "REV_AT_EPOCH": 53867, "BSTAR": 0.001808457, "MEAN_MOTION_DOT": 1.63e-05, "MEAN_MOTION_DDOT": 0}, "tle": {"line1": "1 31992U 99025CPV 25346.16971404  .00001630  00000+0  18085-2 0  9994", "line2": "2 31992  99.1658 306.1111 0542401  30.9700 332.2249 13.22988689538672"}}, "geometry": {"type": "Point", "coordinates": [-54.18937249701894, 32.25402124322526]}}, {"type": "Feature", "properties": {"norad_id": 31993, "name": "FENGYUN 1C DEB", "group": "fengyun-1c-debris", "lat": 18.24971989823357, "lon": 147.1938411785946, "alt_km": 907.6789513493659, "timestamp": "2025-12-18T10:51:26.092926+00:00", "meta": {"OBJECT_NAME": "FENGYUN 1C DEB", "OBJECT_ID": "1999-025CPW", "EPOCH": "2025-12-17T15:59:38.723424", "MEAN_MOTION": 13.27465244, "ECCENTRICITY": 0.04221919, "INCLINATION": 99.2401, "RA_OF_ASC_NODE": 323.4136, "ARG_OF_PERICENTER": 123.2149, "MEAN_ANOMALY": 241.0192, "EPHEMERIS_TYPE": 0, "CLASSIFICATION_TYPE": "U", "NORAD_CAT_ID": 31993, "ELEMENT_SET_NO": 999, "REV_AT_EPOCH": 89008, "BSTAR": 0.0017179933, "MEAN_MOTION_DOT": 1.22e-05, "MEAN_MOTION_DDOT": 0}, "tle": {"line1": "1 31993U 99025CPW 25351.66642041  .00001220  00000+0  17180-2 0  9998", "line2": "2 31993  99.2401 323.4136 0422191 123.2149 241.0192 13.27465244890087"}}, "geometry": {"type": "Point", "coordinates": [147.1938411785946, 18.24971989823357]}}, {"type": "Feature", "properties": {"norad_id": 31994, "name": "FENGYUN 1C DEB", "group": "fengyun-1c-debris", "lat": -41.01655218310644, "lon": -6.2762844687250965, "alt_km": 1032.1817912166161, "timestamp": "2025-12-18T10:51:26.092959+00:00", "meta": {"OBJECT_NAME": "FENGYUN 1C DEB", "OBJECT_ID": "1999-025CPX", "EPOCH": "2025-12-17T17:51:25.018848", "MEAN_MOTION": 13.95758724, "ECCENTRICITY": 0.01625012, "INCLINATION": 98.539, "RA_OF_ASC_NODE": 345.558, "ARG_OF_PERICENTER": 132.2179, "MEAN_ANOMALY": 229.2907, "EPHEMERIS_TYPE": 0, "CLASSIFICATION_TYPE": "U", "NORAD_CAT_ID": 31994, "ELEMENT_SET_NO": 999, "REV_AT_EPOCH": 56866, "BSTAR": -8.2226041e-05, "MEAN_MOTION_DOT": -1.64e-06, "MEAN_MOTION_DDOT": 0}, "tle": {"line1": "1 31994U 99025CPX 25351.74403957 -.00000164  00000+0 -82226-4 0  9992", "line2": "2 31994  98.5390 345.5580 0162501 132.2179 229.2907 13.95758724568665"}}, "geometry": {"type": "Point", "coordinates": [-6.2762844687250965, -41.01655218310644]}}, {"type": "Feature", "properties": {"norad_id": 31997, "name": "FENGYUN 1C DEB", "group": "fengyun-1c-debris", "lat": -66.42132973630918, "lon": 68.10880543623448, "alt_km": 851.0551755783727, "timestamp": "2025-12-18T10:51:26.092973+00:00", "meta": {"OBJECT_NAME": "FENGYUN 1C DEB", "OBJECT_ID": "1999-025CQA", "EPOCH": "2025-12-15T21:25:47.322912", "MEAN_MOTION": 13.60688194, "ECCENTRICITY": 0.02902938, "INCLINATION": 102.5107, "RA_OF_ASC_NODE": 34.2632, "ARG_OF_PERICENTER": 266.7026, "MEAN_ANOMALY": 90.0859, "EPHEMERIS_TYPE": 0, "CLASSIFICATION_TYPE": "U", "NORAD_CAT_ID": 31997, "ELEMENT_SET_NO": 999, "REV_AT_EPOCH": 61726, "BSTAR": 0.0019849043, "MEAN_MOTION_DOT": 1.913e-05, "MEAN_MOTION_DDOT": 0}, "tle": {"line1": "1 31997U 99025CQA 25349.89290883  .00001913  00000+0  19849-2 0  9990", "line2": "2 31997 102.5107  34.2632 0290293 266.7026  90.0859 13.60688194617260"}}, "geometry": {"type": "Point", "coordinates": [68.10880543623448, -66.42132973630918]}}, {"type": "Feature", "properties": {"norad_id": 32086, "name": "FENGYUN 1C DEB", "group": "fengyun-1c-debris", "lat": -18.58572103507383, "lon": 50.30095805390248, "alt_km": 1173.6695972766192, "timestamp": "2025-12-18T10:51:26.092984+00:00", "meta": {"OBJECT_NAME": "FENGYUN 1C DEB", "OBJECT_ID": "1999-025CQC", "EPOCH": "2025-12-17T10:23:39.337152", "MEAN_MOTION": 13.689162, "ECCENTRICITY": 0.02995228, "INCLINATION": 99.2703, "RA_OF_ASC_NODE": 46.1713, "ARG_OF_PERICENTER": 123.4273, "MEAN_ANOMALY": 239.5901, "EPHEMERIS_TYPE": 0, "CLASSIFICATION_TYPE": "U", "NORAD_CAT_ID": 32086, "ELEMENT_SET_NO": 999, "REV_AT_EPOCH": 61845, "BSTAR": 0.0015448489, "MEAN_MOTION_DOT": 1.784e-05, "MEAN_MOTION_DDOT": 0}, "tle": {"line1": "1 32086U 99025CQC 25351.43309418  .00001784  00000+0  15448-2 0  9995", "line2": "2 32086  99.2703  46.1713 0299522 123.4273 239.5901 13.68916200618453"}}, "geometry": {"type": "Point", "coordinates": [50.30095805390248, -18.58572103507383]}}]}